{
  "type": "FeatureCollection",
  "features": [
    {
      "type": "Feature",
      "properties": {
        "norad_id": 42989,
        "name": "SKYSAT-C9",
        "group": "resource",
        "lat": -40.787111412576856,
        "lon": -59.88338214941268,
        "alt_km": 470.636047248011,
        "timestamp": "2025-12-22T05:49:03.139885+00:00",
        "meta_object_name": "SKYSAT-C9",
        "meta_object_id": "2017-068C",
        "meta_epoch": "2025-12-21T19:28:44.749056",
        "meta_mean_motion": 15.36261428,
        "meta_eccentricity": 0.0010443,
        "meta_inclination": 97.4196,
        "meta_ra_of_asc_node": 126.1381,
        "meta_arg_of_pericenter": 58.73,
        "meta_mean_anomaly": 301.4966,
        "meta_ephemeris_type": 0,
        "meta_classification_type": "U",
        "meta_norad_cat_id": 42989,
        "meta_element_set_no": 999,
        "meta_rev_at_epoch": 45547,
        "meta_bstar": 0.00031501,
        "meta_mean_motion_dot": 0.00011075,
        "meta_mean_motion_ddot": 0,
        "tle_line1": "1 42989U 17068C   25355.81162904  .00011075  00000+0  31501-3 0  9991",
        "tle_line2": "2 42989  97.4196 126.1381 0010443  58.7300 301.4966 15.36261428455479"
      },
      "geometry": {
        "type": "Point",
        "coordinates": [
          -59.88338214941268,
          -40.787111412576856
        ]
      }
    },
    {
      "type": "Feature",
      "properties": {
        "norad_id": 42990,
        "name": "SKYSAT-C8",
        "group": "resource",
        "lat": 80.74064874935092,
        "lon": 73.12000461264465,
        "alt_km": 459.75058616781916,
        "timestamp": "2025-12-22T05:49:03.139896+00:00",
        "meta_object_name": "SKYSAT-C8",
        "meta_object_id": "2017-068D",
        "meta_epoch": "2025-12-21T15:21:08.427168",
        "meta_mean_motion": 15.33101109,
        "meta_eccentricity": 0.0001047,
        "meta_inclination": 97.4289,
        "meta_ra_of_asc_node": 125.6798,
        "meta_arg_of_pericenter": 296.3414,
        "meta_mean_anomaly": 63.7721,
        "meta_ephemeris_type": 0,
        "meta_classification_type": "U",
        "meta_norad_cat_id": 42990,
        "meta_element_set_no": 999,
        "meta_rev_at_epoch": 45507,
        "meta_bstar": 0.00030234,
        "meta_mean_motion_dot": 9.591e-05,
        "meta_mean_motion_ddot": 0,
        "tle_line1": "1 42990U 17068D   25355.63968087  .00009591  00000+0  30234-3 0  9991",
        "tle_line2": "2 42990  97.4289 125.6798 0001047 296.3414  63.7721 15.33101109455075"
      },
      "geometry": {
        "type": "Point",
        "coordinates": [
          73.12000461264465,
          80.74064874935092
        ]
      }
    },
    {
      "type": "Feature",
      "properties": {
        "norad_id": 42991,
        "name": "SKYSAT-C7",
        "group": "resource",
        "lat": -78.0697625062701,
        "lon": 165.46279592699605,
        "alt_km": 477.16620549594245,
        "timestamp": "2025-12-22T05:49:03.139906+00:00",
        "meta_object_name": "SKYSAT-C7",
        "meta_object_id": "2017-068E",
        "meta_epoch": "2025-12-21T14:29:53.176416",
        "meta_mean_motion": 15.32498854,
        "meta_eccentricity": 0.0007098,
        "meta_inclination": 97.4298,
        "meta_ra_of_asc_node": 126.6779,
        "meta_arg_of_pericenter": 29.4906,
        "meta_mean_anomaly": 330.6735,
        "meta_ephemeris_type": 0,
        "meta_classification_type": "U",
        "meta_norad_cat_id": 42991,
        "meta_element_set_no": 999,
        "meta_rev_at_epoch": 45513,
        "meta_bstar": 0.00028728,
        "meta_mean_motion_dot": 8.944e-05,
        "meta_mean_motion_ddot": 0,
        "tle_line1": "1 42991U 17068E   25355.60408769  .00008944  00000+0  28728-3 0  9991",
        "tle_line2": "2 42991  97.4298 126.6779 0007098  29.4906 330.6735 15.32498854455132"
      },
      "geometry": {
        "type": "Point",
        "coordinates": [
          165.46279592699605,
          -78.0697625062701
        ]
      }
    },
    {
      "type": "Feature",
      "properties": {
        "norad_id": 42992,
        "name": "SKYSAT-C6",
        "group": "resource",
        "lat": 7.455535233490891,
        "lon": 126.77061160219687,
        "alt_km": 470.69306304532256,
        "timestamp": "2025-12-22T05:49:03.139917+00:00",
        "meta_object_name": "SKYSAT-C6",
        "meta_object_id": "2017-068F",
        "meta_epoch": "2025-12-21T15:40:24.245760",
        "meta_mean_motion": 15.31657178,
        "meta_eccentricity": 0.0004946,
        "meta_inclination": 97.4328,
        "meta_ra_of_asc_node": 127.1585,
        "meta_arg_of_pericenter": 58.7729,
        "meta_mean_anomaly": 301.3997,
        "meta_ephemeris_type": 0,
        "meta_classification_type": "U",
        "meta_norad_cat_id": 42992,
        "meta_element_set_no": 999,
        "meta_rev_at_epoch": 45512,
        "meta_bstar": 0.00029809,
        "meta_mean_motion_dot": 9.038e-05,
        "meta_mean_motion_ddot": 0,
        "tle_line1": "1 42992U 17068F   25355.65305840  .00009038  00000+0  29809-3 0  9999",
        "tle_line2": "2 42992  97.4328 127.1585 0004946  58.7729 301.3997 15.31657178455124"
      },
      "geometry": {
        "type": "Point",
        "coordinates": [
          126.77061160219687,
          7.455535233490891
        ]
      }
    },
    {
      "type": "Feature",
      "properties": {
        "norad_id": 43111,
        "name": "CARTOSAT-2F",
        "group": "resource",
        "lat": 52.412886413509575,
        "lon": 43.96430976635403,
        "alt_km": 502.8753367992249,
        "timestamp": "2025-12-22T05:49:03.139927+00:00",
        "meta_object_name": "CARTOSAT-2F",
        "meta_object_id": "2018-004A",
        "meta_epoch": "2025-12-21T20:06:00.488160",
        "meta_mean_motion": 15.19200865,
        "meta_eccentricity": 0.0001396,
        "meta_inclination": 97.4307,
        "meta_ra_of_asc_node": 53.3279,
        "meta_arg_of_pericenter": 111.1911,
        "meta_mean_anomaly": 248.9473,
        "meta_ephemeris_type": 0,
        "meta_classification_type": "U",
        "meta_norad_cat_id": 43111,
        "meta_element_set_no": 999,
        "meta_rev_at_epoch": 44040,
        "meta_bstar": 0.00011682,
        "meta_mean_motion_dot": 2.391e-05,
        "meta_mean_motion_ddot": 0,
        "tle_line1": "1 43111U 18004A   25355.83750565  .00002391  00000+0  11682-3 0  9997",
        "tle_line2": "2 43111  97.4307  53.3279 0001396 111.1911 248.9473 15.19200865440401"
      },
      "geometry": {
        "type": "Point",
        "coordinates": [
          43.96430976635403,
          52.412886413509575
        ]
      }
    },
    {
      "type": "Feature",
      "properties": {
        "norad_id": 43259,
        "name": "GAOFEN-1 02",
        "group": "resource",
        "lat": 22.82705366449447,
        "lon": -122.53686995624363,
        "alt_km": 638.699376236782,
        "timestamp": "2025-12-22T05:49:03.139939+00:00",
        "meta_object_name": "GAOFEN-1 02",
        "meta_object_id": "2018-031A",
        "meta_epoch": "2025-12-21T20:58:36.755328",
        "meta_mean_motion": 14.76433082,
        "meta_eccentricity": 0.0002395,
        "meta_inclination": 98.0798,
        "meta_ra_of_asc_node": 53.6667,
        "meta_arg_of_pericenter": 181.5379,
        "meta_mean_anomaly": 178.5823,
        "meta_ephemeris_type": 0,
        "meta_classification_type": "U",
        "meta_norad_cat_id": 43259,
        "meta_element_set_no": 999,
        "meta_rev_at_epoch": 41653,
        "meta_bstar": 0.00014512,
        "meta_mean_motion_dot": 9.57e-06,
        "meta_mean_motion_ddot": 0,
        "tle_line1": "1 43259U 18031A   25355.87403652  .00000957  00000+0  14512-3 0  9997",
        "tle_line2": "2 43259  98.0798  53.6667 0002395 181.5379 178.5823 14.76433082416533"
      },
      "geometry": {
        "type": "Point",
        "coordinates": [
          -122.53686995624363,
          22.82705366449447
        ]
      }
    },
    {
      "type": "Feature",
      "properties": {
        "norad_id": 43260,
        "name": "GAOFEN-1 03",
        "group": "resource",
        "lat": -81.46778714714252,
        "lon": 125.12665852550141,
        "alt_km": 646.6938996898507,
        "timestamp": "2025-12-22T05:49:03.139950+00:00",
        "meta_object_name": "GAOFEN-1 03",
        "meta_object_id": "2018-031B",
        "meta_epoch": "2025-12-21T20:27:11.629152",
        "meta_mean_motion": 14.76454008,
        "meta_eccentricity": 0.00017,
        "meta_inclination": 98.0786,
        "meta_ra_of_asc_node": 53.5205,
        "meta_arg_of_pericenter": 273.8122,
        "meta_mean_anomaly": 86.2893,
        "meta_ephemeris_type": 0,
        "meta_classification_type": "U",
        "meta_norad_cat_id": 43260,
        "meta_element_set_no": 999,
        "meta_rev_at_epoch": 41652,
        "meta_bstar": 0.00011358,
        "meta_mean_motion_dot": 7.38e-06,
        "meta_mean_motion_ddot": 0,
        "tle_line1": "1 43260U 18031B   25355.85221793  .00000738  00000+0  11358-3 0  9993",
        "tle_line2": "2 43260  98.0786  53.5205 0001700 273.8122  86.2893 14.76454008416521"
      },
      "geometry": {
        "type": "Point",
        "coordinates": [
          125.12665852550141,
          -81.46778714714252
        ]
      }
    }
  ]
}